{
  "norad_id": 61720,
  "name": "STARLINK-32322",
  "history": [
    {
      "epoch": "2026-04-11T13:15:44.889696Z",
      "apogee_km": 475.9347288261424,
      "perigee_km": 474.5599399286657,
      "latitude_deg": 6.620649547688917e-05,
      "longitude_deg": -89.70053944890698,
      "height_km": 476.2570053957191,
      "semi_major_axis_km": 6853.384334377404,
      "eccentricity": 0.0001003,
      "inclination_deg": 53.1608,
      "raan_deg": 309.0069,
      "arg_perigee_deg": 99.3052,
      "mean_anomaly_deg": 260.8063,
      "mean_motion_rev_day": 15.30189194
    },
    {
      "epoch": "2026-04-13T06:01:07.802400Z",
      "apogee_km": 475.8682803441843,
      "perigee_km": 474.60369596041164,
      "latitude_deg": -3.8064227450186596e-06,
      "longitude_deg": 9.393533311764893,
      "height_km": 476.1901281665955,
      "semi_major_axis_km": 6853.372988152298,
      "eccentricity": 9.226e-05,
      "inclination_deg": 53.1602,
      "raan_deg": 301.1203,
      "arg_perigee_deg": 95.0424,
      "mean_anomaly_deg": 265.0682,
      "mean_motion_rev_day": 15.30192994
    },
    {
      "epoch": "2026-04-14T19:38:24.508608Z",
      "apogee_km": 476.0979274751362,
      "perigee_km": 474.3516908861575,
      "latitude_deg": -4.691485041472821e-05,
      "longitude_deg": 156.24604148061977,
      "height_km": 475.9759710207398,
      "semi_major_axis_km": 6853.361809180647,
      "eccentricity": 0.0001274,
      "inclination_deg": 53.1595,
      "raan_deg": 293.8375,
      "arg_perigee_deg": 80.3149,
      "mean_anomaly_deg": 279.7995,
      "mean_motion_rev_day": 15.30196738
    },
    {
      "epoch": "2026-04-15T17:35:09.391776Z",
      "apogee_km": 476.06352773559775,
      "perigee_km": 474.40090036426955,
      "latitude_deg": 2.947642882984354e-05,
      "longitude_deg": -178.08849508093422,
      "height_km": 475.9876249334585,
      "semi_major_axis_km": 6853.369214049933,
      "eccentricity": 0.0001213,
      "inclination_deg": 53.1619,
      "raan_deg": 289.5912,
      "arg_perigee_deg": 80.0972,
      "mean_anomaly_deg": 280.0166,
      "mean_motion_rev_day": 15.30194258
    },
    {
      "epoch": "2026-04-16T18:40:00.247296Z",
      "apogee_km": 476.09927426434206,
      "perigee_km": 474.339332365651,
      "latitude_deg": -2.729115696939959e-05,
      "longitude_deg": 159.81543505696743,
      "height_km": 475.9920456974452,
      "semi_major_axis_km": 6853.356303314997,
      "eccentricity": 0.0001284,
      "inclination_deg": 53.1616,
      "raan_deg": 284.7371,
      "arg_perigee_deg": 81.8,
      "mean_anomaly_deg": 278.3146,
      "mean_motion_rev_day": 15.30198582
    },
    {
      "epoch": "2026-04-17T11:54:35.665632Z",
      "apogee_km": 475.91533647335746,
      "perigee_km": 474.5541197807179,
      "latitude_deg": 2.4230311437780123e-05,
      "longitude_deg": -102.87625386583521,
      "height_km": 476.01269030652486,
      "semi_major_axis_km": 6853.371728127037,
      "eccentricity": 9.931e-05,
      "inclination_deg": 53.161,
      "raan_deg": 281.4011,
      "arg_perigee_deg": 79.7926,
      "mean_anomaly_deg": 280.3187,
      "mean_motion_rev_day": 15.30193416
    },
    {
      "epoch": "2026-04-18T17:41:35.922048Z",
      "apogee_km": 475.9077266782715,
      "perigee_km": 474.53157266301787,
      "latitude_deg": 2.7854687148370852e-05,
      "longitude_deg": 163.3858200490635,
      "height_km": 475.9874795866199,
      "semi_major_axis_km": 6853.356649670644,
      "eccentricity": 0.0001004,
      "inclination_deg": 53.1611,
      "raan_deg": 275.6374,
      "arg_perigee_deg": 79.0463,
      "mean_anomaly_deg": 281.0651,
      "mean_motion_rev_day": 15.30198466
    },
    {
      "epoch": "2026-04-19T20:20:30.713280Z",
      "apogee_km": 475.8802752774418,
      "perigee_km": 474.5986938748256,
      "latitude_deg": -2.558837916093695e-05,
      "longitude_deg": 117.40536517686179,
      "height_km": 476.00005055927363,
      "semi_major_axis_km": 6853.376484576133,
      "eccentricity": 9.35e-05,
      "inclination_deg": 53.1608,
      "raan_deg": 270.4797,
      "arg_perigee_deg": 77.5562,
      "mean_anomaly_deg": 282.5543,
      "mean_motion_rev_day": 15.30191823
    }
  ]
}